NORAD_CAT_ID,OBJECT_NAME,OBJECT_TYPE,EPOCH,MEAN_MOTION,ECCENTRICITY,INCLINATION,RA_OF_ASC_NODE,ARG_OF_PERICENTER,MEAN_ANOMALY,BSTAR,MEAN_MOTION_DOT,MEAN_MOTION_DDOT,TLE_LINE0,TLE_LINE1,TLE_LINE2,SEMIMAJOR_AXIS,PERIOD,APOGEE,PERIGEE,DECAYED
52612.0,STARLINK-4002,PAYLOAD,2022-11-06 10:13:58,15.08864077,0.0002422,53.2184,352.6164,37.6384,322.4778,0.0015214,0.00024024,0.0,0 STARLINK-4002,1 52612U 22052Q   22310.42637519  .00024024  00000-0  15214-2 0  9999,2 52612  53.2184 352.6164 0002422  37.6384 322.4778 15.08864077 26792,6917.807,95.436,541.347,537.996,0.0
52612.0,STARLINK-4002,PAYLOAD,2022-11-07 03:43:12,15.08858625,0.0002412,53.2187,349.3452,30.5823,329.5309,0.00069177,0.00010744,0.0,0 STARLINK-4002,1 52612U 22052Q   22311.15500281  .00010744  00000-0  69177-3 0  9997,2 52612  53.2187 349.3452 0002412  30.5823 329.5309 15.08858625 27271,6917.823,95.436,541.357,538.02,0.0
52612.0,STARLINK-4002,PAYLOAD,2022-11-07 21:12:25,15.08868411,0.0002258,53.2178,346.0734,30.3663,329.746,0.0003054,4.579e-05,0.0,0 STARLINK-4002,1 52612U 22052Q   22311.88362645  .00004579  00000-0  30540-3 0  9998,2 52612  53.2178 346.0734 0002258  30.3663 329.7460 15.08868411 27012,6917.794,95.436,541.221,538.097,0.0
52612.0,STARLINK-4002,PAYLOAD,2022-11-08 03:33:56,15.08890401,0.0002402,53.2181,344.8855,32.8942,327.2199,8.9915e-05,1.145e-05,0.0,0 STARLINK-4002,1 52612U 22052Q   22312.14856734  .00001145  00000-0  89915-4 0  9992,2 52612  53.2181 344.8855 0002402  32.8942 327.2199 15.08890401 27425,6917.726,95.434,541.253,537.93,0.0
52612.0,STARLINK-4002,PAYLOAD,2022-11-08 09:55:28,15.08880579,0.0002367,53.2176,343.6954,32.3897,327.724,0.00026347,3.912e-05,0.0,0 STARLINK-4002,1 52612U 22052Q   22312.41352374  .00003912  00000-0  26347-3 0  9996,2 52612  53.2176 343.6954 0002367  32.3897 327.7240 15.08880579 27461,6917.755999999999,95.435,541.259,537.984,0.0
52612.0,STARLINK-4002,PAYLOAD,2022-11-08 21:03:09,15.08889536,0.0002339,53.2174,341.6137,32.2322,327.8812,0.00045012,6.892e-05,0.0,0 STARLINK-4002,1 52612U 22052Q   22312.87718856  .00006892  00000-0  45012-3 0  9997,2 52612  53.2174 341.6137 0002339  32.2322 327.8812 15.08889536 27166,6917.729,95.434,541.212,537.976,0.0
52612.0,STARLINK-4002,PAYLOAD,2022-11-09 01:49:18,15.08872454,0.0002323,53.2173,340.7206,31.7604,328.3528,-0.00010378,-1.941e-05,0.0,0 STARLINK-4002,1 52612U 22052Q   22313.07590706 -.00001941  00000-0 -10378-3 0  9991,2 52612  53.2173 340.7206 0002323  31.7604 328.3528 15.08872454 27567,6917.781,95.436,541.253,538.039,0.0
52612.0,STARLINK-4002,PAYLOAD,2022-11-09 08:10:50,15.08871309,0.0002494,53.2181,339.5334,28.2413,331.8714,-6.0324e-05,-1.249e-05,0.0,0 STARLINK-4002,1 52612U 22052Q   22313.34086316 -.00001249  00000-0 -60324-4 0  9996,2 52612  53.2181 339.5334 0002494  28.2413 331.8714 15.08871309 27230,6917.785,95.436,541.375,537.924,0.0
52612.0,STARLINK-4002,PAYLOAD,2022-11-09 19:18:33,15.08826176,0.0002494,53.2172,337.4501,28.9005,331.2125,-0.00078256,-0.00012717,0.0,0 STARLINK-4002,1 52612U 22052Q   22313.80455779 -.00012717  00000-0 -78256-3 0  9994,2 52612  53.2172 337.4501 0002494  28.9005 331.2125 15.08826176 27677,6917.9230000000025,95.438,541.513,538.062,0.0
52612.0,STARLINK-4002,PAYLOAD,2022-11-09 20:53:56,15.08823638,0.0002306,53.2177,337.1533,24.4217,335.6884,-0.00079929,-0.00012981,0.0,0 STARLINK-4002,1 52612U 22052Q   22313.87079816 -.00012981  00000-0 -79929-3 0  9996,2 52612  53.2177 337.1533 0002306  24.4217 335.6884 15.08823638 27313,6917.93,95.439,541.391,538.2,0.0
52612.0,STARLINK-4002,PAYLOAD,2022-11-10 08:01:39,15.08825012,0.0002293,53.2169,335.0713,29.2793,330.8327,-8.852e-05,-1.696e-05,0.0,0 STARLINK-4002,1 52612U 22052Q   22314.33448267 -.00001696  00000-0 -88520-4 0  9997,2 52612  53.2169 335.0713 0002293  29.2793 330.8327 15.08825012 27382,6917.926,95.439,541.377,538.205,0.0
52612.0,STARLINK-4002,PAYLOAD,2022-11-11 01:30:53,15.088561,0.0002398,53.2169,331.8002,29.9301,330.1827,0.0013217,0.00020819,0.0,0 STARLINK-4002,1 52612U 22052Q   22315.06312410  .00020819  00000-0  13217-2 0  9993,2 52612  53.2169 331.8002 0002398  29.9301 330.1827 15.08856100 27868,6917.831,95.437,541.355,538.0369999999998,0.0
52612.0,STARLINK-4002,PAYLOAD,2022-11-11 07:52:26,15.08844355,0.0002565,53.2178,330.611,27.6865,332.4263,0.00054967,8.472e-05,0.0,0 STARLINK-4002,1 52612U 22052Q   22315.32808567  .00008472  00000-0  54967-3 0  9994,2 52612  53.2178 330.6110 0002565  27.6865 332.4263 15.08844355 27904,6917.8669999999975,95.437,541.507,537.9580000000002,0.0
52612.0,STARLINK-4002,PAYLOAD,2022-11-11 11:03:12,15.08844873,0.0002583,53.2178,330.0164,27.8823,332.2308,0.00044092,6.737e-05,0.0,0 STARLINK-4002,1 52612U 22052Q   22315.46056579  .00006737  00000-0  44092-3 0  9997,2 52612  53.2178 330.0164 0002583  27.8823 332.2308 15.08844873 27557,6917.865,95.437,541.5169999999998,537.944,0.0
52612.0,STARLINK-4002,PAYLOAD,2022-11-12 07:43:13,15.08848044,0.0002577,53.2181,326.1504,28.9531,331.1604,0.00024072,3.546e-05,0.0,0 STARLINK-4002,1 52612U 22052Q   22316.32168230  .00003546  00000-0  24072-3 0  9992,2 52612  53.2181 326.1504 0002577  28.9531 331.1604 15.08848044 28053,6917.856,95.437,541.504,537.938,0.0
52612.0,STARLINK-4002,PAYLOAD,2022-11-13 01:12:28,15.08838575,0.0002585,53.2179,322.8801,32.2313,327.8836,5.7364e-05,6.25e-06,0.0,0 STARLINK-4002,1 52612U 22052Q   22317.05032491  .00000625  00000-0  57364-4 0  9998,2 52612  53.2179 322.8801 0002585  32.2313 327.8836 15.08838575 28167,6917.885,95.438,541.538,537.961,0.0
52612.0,STARLINK-4002,PAYLOAD,2022-11-13 07:34:00,15.08842379,0.0002581,53.2178,321.6902,26.0388,334.0733,0.00010744,1.422e-05,0.0,0 STARLINK-4002,1 52612U 22052Q   22317.31528341  .00001422  00000-0  10744-3 0  9997,2 52612  53.2178 321.6902 0002581  26.0388 334.0733 15.08842379 27830,6917.873000000001,95.437,541.524,537.953,0.0
52612.0,STARLINK-4002,PAYLOAD,2022-11-14 09:00:11,15.08837379,0.0002532,53.2177,316.932,30.3177,329.7961,3.8185e-05,3.19e-06,0.0,0 STARLINK-4002,1 52612U 22052Q   22318.37512802  .00000319  00000-0  38185-4 0  9993,2 52612  53.2177 316.9320 0002532  30.3177 329.7961 15.08837379 28367,6917.888000000001,95.438,541.505,538.002,0.0
52612.0,STARLINK-4002,PAYLOAD,2022-11-15 08:50:57,15.08842494,0.0002573,53.2179,312.4715,25.9378,334.1742,5.1113e-05,5.25e-06,0.0,0 STARLINK-4002,1 52612U 22052Q   22319.36872665  .00000525  00000-0  51113-4 0  9994,2 52612  53.2179 312.4715 0002573  25.9378 334.1742 15.08842494 28143,6917.873000000001,95.437,541.518,537.9580000000002,0.0
52612.0,STARLINK-4002,PAYLOAD,2022-11-15 18:23:16,15.08846407,0.0002502,53.2177,310.6875,30.1628,329.9508,0.00025321,3.745e-05,0.0,0 STARLINK-4002,1 52612U 22052Q   22319.76616559  .00003745  00000-0  25321-3 0  9994,2 52612  53.2177 310.6875 0002502  30.1628 329.9508 15.08846407 28573,6917.861,95.437,541.457,537.995,0.0
52612.0,STARLINK-4002,PAYLOAD,2022-11-15 19:58:39,15.08843136,0.0002319,53.218,310.3902,30.7276,329.3852,0.00018988,2.735e-05,0.0,0 STARLINK-4002,1 52612U 22052Q   22319.83240637  .00002735  00000-0  18988-3 0  9991,2 52612  53.2180 310.3902 0002319  30.7276 329.3852 15.08843136 28219,6917.871,95.437,541.34,538.132,0.0
52612.0,STARLINK-4002,PAYLOAD,2022-11-16 00:44:49,15.08837433,0.000234,53.2178,309.4981,30.9285,329.1845,8.5684e-05,1.076e-05,0.0,0 STARLINK-4002,1 52612U 22052Q   22320.03112946  .00001076  00000-0  85684-4 0  9991,2 52612  53.2178 309.4981 0002340  30.9285 329.1845 15.08837433 28615,6917.888000000001,95.438,541.372,538.134,0.0
52612.0,STARLINK-4002,PAYLOAD,2022-11-16 08:41:45,15.08840256,0.0002429,53.2178,308.0114,30.8738,329.2397,0.00011316,1.513e-05,0.0,0 STARLINK-4002,1 52612U 22052Q   22320.36232901  .00001513  00000-0  11316-3 0  9997,2 52612  53.2178 308.0114 0002429  30.8738 329.2397 15.08840256 28292,6917.88,95.438,541.425,538.064,0.0
52612.0,STARLINK-4002,PAYLOAD,2022-11-16 16:38:41,15.08833106,0.0002419,53.218,306.5248,30.5114,329.6019,-1.7436e-05,-5.66e-06,0.0,0 STARLINK-4002,1 52612U 22052Q   22320.69353396 -.00000566  00000-0 -17436-4 0  9994,2 52612  53.2180 306.5248 0002419  30.5114 329.6019 15.08833106 28347,6917.901,95.438,541.44,538.0930000000002,0.0
52612.0,STARLINK-4002,PAYLOAD,2022-11-17 02:11:00,15.08838712,0.000242,53.2189,304.7405,30.528,329.5852,0.00010172,1.331e-05,0.0,0 STARLINK-4002,1 52612U 22052Q   22321.09097252  .00001331  00000-0  10172-3 0  9993,2 52612  53.2189 304.7405 0002420  30.5280 329.5852 15.08838712 28776,6917.884,95.438,541.423,538.075,0.0
52612.0,STARLINK-4002,PAYLOAD,2022-11-17 08:32:32,15.08844162,0.0002402,53.2186,303.5506,32.4814,327.6326,0.0001467,2.047e-05,0.0,0 STARLINK-4002,1 52612U 22052Q   22321.35592932  .00002047  00000-0  14670-3 0  9999,2 52612  53.2186 303.5506 0002402  32.4814 327.6326 15.08844162 28441,6917.868,95.437,541.394,538.071,0.0
52612.0,STARLINK-4002,PAYLOAD,2022-11-18 08:23:19,15.08843885,0.0002508,53.2186,299.0904,33.3305,326.7845,0.00013568,1.872e-05,0.0,0 STARLINK-4002,1 52612U 22052Q   22322.34952739  .00001872  00000-0  13568-3 0  9994,2 52612  53.2186 299.0904 0002508  33.3305 326.7845 15.08843885 28597,6917.869000000002,95.437,541.469,537.999,0.0
52612.0,STARLINK-4002,PAYLOAD,2022-11-18 22:41:47,15.08839056,0.0002521,53.2178,296.4134,32.7449,327.3699,6.2145e-05,7.01e-06,0.0,0 STARLINK-4002,1 52612U 22052Q   22322.94569216  .00000701  00000-0  62145-4 0  9990,2 52612  53.2178 296.4134 0002521  32.7449 327.3699 15.08839056 29052,6917.8830000000025,95.438,541.492,538.004,0.0
52612.0,STARLINK-4002,PAYLOAD,2022-11-19 08:14:06,15.08840453,0.0002417,53.2184,294.6301,32.4233,327.6907,2.395800000000001e-05,9.3e-07,0.0,0 STARLINK-4002,1 52612U 22052Q   22323.34313328  .00000093  00000-0  23958-4 0  9999,2 52612  53.2184 294.6301 0002417  32.4233 327.6907 15.08840453 28740,6917.879,95.438,541.4159999999998,538.072,0.0
